ORBCOMM FM24            
1 25478U 98053D   25094.17828487  .00003152  00000+0  10820-2 0  9999
2 25478  45.0070 259.9496 0002850 201.7075 158.3653 14.37852162387070
ORBCOMM FM25            
1 25479U 98053E   25093.93988745  .00002973  00000+0  10235-2 0  9997
2 25479  45.0061 259.3407 0004909 220.8367 139.2114 14.37823672387052
ORBCOMM FM26            
1 25480U 98053F   25094.18167531  .00002680  00000+0  94403-3 0  9994
2 25480  45.0057 254.1292 0006532 242.7197 117.2986 14.36925912387100
ORBCOMM FM27            
1 25481U 98053G   25094.48477096  .00003528  00000+0  12056-2 0  9993
2 25481  45.0044 256.9865 0001490 191.7199 168.3615 14.37847193387107
ORBCOMM FM28            
1 25482U 98053H   25093.62966109  .00002461  00000+0  85110-3 0  9994
2 25482  45.0043 198.6550 0005531 265.9120  94.1096 14.38066791387622
ORBCOMM FM30            
1 25980U 99065A   25094.38857089  .00002524  00000+0  88931-3 0  9995
2 25980  45.0305  78.9798 0007613 344.1859  15.8750 14.37080376324365
ORBCOMM FM31            
1 25981U 99065B   25093.66381838  .00002046  00000+0  73062-3 0  9998
2 25981  45.0220  75.9199 0004542 352.9885   7.0899 14.37031563323289
ORBCOMM FM32            
1 25982U 99065C   25094.14739782  .00002092  00000+0  76039-3 0  9996
2 25982  45.0149  89.7083 0006483 359.0374   1.0460 14.36066526324085
